{"spkid": "54100582", "covariance": {"labels": ["e", "q", "tp", "node", "peri", "i"], "elements": [{"label": "e", "title": "eccentricity", "value": ".9093669738616879", "units": null, "sigma": 2.67261677715066e-07, "name": "e"}, {"label": "q", "name": "q", "sigma": 5.39729035744471e-07, "units": "au", "value": ".1850982939741302", "title": "perihelion distance"}, {"label": "tp", "units": "TDB", "value": "2459160.798337579361", "title": "time of perihelion passage", "sigma": 2.82118791750962e-05, "name": "tp"}, {"name": "om", "sigma": 1.87268118374392e-05, "value": "82.87808791574393", "title": "longitude of the ascending node", "units": "deg", "label": "node"}, {"units": "deg", "title": "argument of perihelion", "value": "222.3461603550786", "sigma": 6.10832289067484e-05, "name": "w", "label": "peri"}, {"label": "i", "sigma": 2.94915307895684e-05, "name": "i", "units": "deg", "title": "inclination", "value": "5.776467469573067"}], "data": [["7.142880437507196E-14", "-1.439691601807068E-13", "7.435779210668247E-12", "6.310467476140777E-13", "-1.552606846185538E-11", "1.521609586718553E-12"], ["-1.439691601807068E-13", "2.913074320256561E-13", "-1.509280699429688E-11", "-1.46407362032122E-12", "3.149752162303041E-11", "-2.666549267787256E-12"], ["7.435779210668247E-12", "-1.509280699429688E-11", "7.959101265902291E-10", "9.025860846858273E-11", "-1.625130521636726E-9", "1.199699835818452E-10"], ["6.310467476140777E-13", "-1.46407362032122E-12", "9.025860846858273E-11", "3.50693481594854E-10", "-4.713871844905002E-10", "-5.170958601853017E-11"], ["-1.552606846185538E-11", "3.149752162303041E-11", "-1.625130521636726E-9", "-4.713871844905002E-10", "3.731160853674222E-9", "-2.643004152919696E-10"], ["1.521609586718553E-12", "-2.666549267787256E-12", "1.199699835818452E-10", "-5.170958601853017E-11", "-2.643004152919696E-10", "8.697503883120637E-10"]], "epoch": "2459629.5"}, "elements": [{"label": "e", "units": null, "title": "eccentricity", "value": ".9099964874454614", "sigma": "2.6924E-7", "name": "e"}, {"sigma": "3.7099E-7", "name": "a", "title": "semi-major axis", "value": "2.040401841880467", "units": "au", "label": "a"}, {"label": "q", "value": ".1836433327919924", "title": "perihelion distance", "units": "au", "name": "q", "sigma": "5.4358E-7"}, {"name": "i", "sigma": "2.9415E-5", "title": "inclination; angle with respect to x-y ecliptic plane", "value": "5.766930817892752", "units": "deg", "label": "i"}, {"name": "om", "sigma": "1.8927E-5", "title": "longitude of the ascending node", "value": "82.7465717861555", "units": "deg", "label": "node"}, {"label": "peri", "sigma": "6.0546E-5", "name": "w", "value": "222.4783459224285", "title": "argument of perihelion", "units": "deg"}, {"units": "deg", "title": "mean anomaly", "value": "328.9871212930496", "sigma": ".00019234", "name": "ma", "label": "M"}, {"label": "tp", "sigma": ".00059375", "name": "tp", "units": "TDB", "value": "2461292.208917466359", "title": "time of perihelion passage"}, {"label": "period", "units": "d", "value": "1064.564518497609", "title": "sidereal orbital period", "sigma": ".00029034", "name": "per"}, {"name": "n", "sigma": "9.2228E-8", "value": ".3381664462272874", "title": "mean motion", "units": "deg/d", "label": "n"}, {"sigma": "7.0858E-7", "name": "ad", "units": "au", "value": "3.897160350968941", "title": "aphelion distance", "label": "Q"}], "epoch": "2461200.5"}